Company Name,Address,City,State,ZIP Code,Latitude,Longitude
99 Ranch Market,475 Hancock St # 2,Quincy,MA,2171,42.270653,-71.023292
Big Y,500 Staples Dr,Framingham,MA,1702,42.291206,-71.489449
Big Y,770 Cochituate Rd,Framingham,MA,1701,42.309146,-71.380338
Big Y,348 E Central St,Franklin,MA,2038,42.079076,-71.380864
Big Y,182 Summer St # 1,Kingston,MA,2364,42.011307,-70.735435
Big Y,10 Washington St # 4,Norwell,MA,2061,42.173941,-70.885579
Big Y,434 Walpole St,Norwood,MA,2062,42.178513,-71.220161
Big Y,637 Lowell St,Peabody,MA,1960,42.550477,-71.001841
Big Y,357 Broadway,Saugus,MA,1906,42.487919,-71.018898
Big Y,1111 Providence Hwy,Walpole,MA,2081,42.138898,-71.220852
BJ'S Wholesale Club,6 Hutchinson Dr,Danvers,MA,1923,42.550193,-70.929283
BJ'S Wholesale Club,688 Providence Hwy,Dedham,MA,2026,42.241178,-71.175085
BJ'S Wholesale Club,901 Technology Center Dr,Stoughton,MA,2072,42.147274,-71.065094
BJ'S Wholesale Club,622 Washington St,Weymouth,MA,2188,42.204269,-70.950968
Brothers Marketplace,446 Main St,Medfield,MA,2052,42.186828,-71.304228
Brothers Marketplace,1 Moody St,Waltham,MA,2453,42.375584,-71.237764
Costco Wholesale,120 Stockwell Dr,Avon,MA,2322,42.136546,-71.066232
Costco Wholesale,11 Newbury St,Danvers,MA,1923,42.557034,-70.977425
Costco Wholesale,200 Legacy Blvd,Dedham,MA,2026,42.23208,-71.17333
Costco Wholesale,2 Mystic View Rd,Everett,MA,2149,42.400626,-71.072409
Costco Wholesale,71 2nd Ave,Waltham,MA,2451,42.394959,-71.265199
Crosby's Marketplace,125 Canal St,Salem,MA,1970,42.509367,-70.895801
Demoulas Super Markets Inc,875 East St,Tewksbury,MA,1876,42.617411,-71.197046
Donelan's Supermarkets Inc,236 Great Rd,Littleton,MA,1460,42.5433,-71.4663
Fields Corner Store,1489 Dorchester Ave,Dorchester,MA,2122,42.299983,-71.060436
Hannaford Pharmacy,777 Rogers St,Lowell,MA,1852,42.628953,-71.278081
Hannaford Supermarket,777 Rogers St,Lowell,MA,1852,42.628953,-71.278081
Hannaford Supermarket,193 Boston Post Rd W # Route20,Marlborough,MA,1752,42.340749,-71.589775
Hannaford Supermarket,8 Merchants Way,Middleboro,MA,2346,41.882866,-70.911995
Hannaford Supermarket,55 Russell St,Waltham,MA,2453,42.375791,-71.244947
Henry's Fine Foods,588 Cabot St # 1,Beverly,MA,1915,42.571595,-70.893783
Hy-Vee,300 Washington St,Newton,MA,2458,42.356813,-71.185949
Idylwilde Farms,366 Central St,Acton,MA,1720,42.483216,-71.477163
Kam Man Food,219 Quincy Ave # 1,Quincy,MA,2169,42.240322,-70.991928
Kayem Foods,75 Arlington St,Chelsea,MA,2150,42.391944,-71.039968
Market Basket,49 Pond St,Ashland,MA,1721,42.256817,-71.427952
Market Basket,274 Hartford Ave # 126,Bellingham,MA,2019,42.116566,-71.462387
Market Basket,496 Boston Rd,Billerica,MA,1821,42.554061,-71.2649
Market Basket,700 Boston Rd # 13,Billerica,MA,1821,42.540291,-71.244164
Market Basket,200 Westgate Dr,Brockton,MA,2301,42.094681,-71.052742
Market Basket,43 Middlesex Tpke # 9,Burlington,MA,1803,42.470556,-71.208112
Market Basket,288 Chelmsford St # A,Chelmsford,MA,1824,42.61344,-71.332435
Market Basket,170 Everett Ave,Chelsea,MA,2150,42.396959,-71.040242
Market Basket,101 Gloucester Crossing Rd,Gloucester,MA,1930,42.62151,-70.656609
Market Basket,2 Water St # 2,Haverhill,MA,1830,42.775757,-71.07529
Market Basket,285 Lincoln Ave,Haverhill,MA,1830,42.76392,-71.03653
Market Basket,400 Lowell Ave # 7,Haverhill,MA,1832,42.773675,-71.114206
Market Basket,8 Highland Cmn E,Hudson,MA,1749,42.394852,-71.594763
Market Basket,700 Essex St # 5,Lawrence,MA,1841,42.702924,-71.172305
Market Basket,301 Constitution Ave,Littleton,MA,1460,42.553265,-71.476936
Market Basket,11 Wood St,Lowell,MA,1851,42.633873,-71.356585
Market Basket,1201 Bridge St # 9,Lowell,MA,1850,42.664565,-71.302442
Market Basket,40 Federal St,Lynn,MA,1905,42.4639,-70.9717
Market Basket,186 Haverhill St,Methuen,MA,1844,42.704971,-71.201523
Market Basket,70 Pleasant Valley St # 5,Methuen,MA,1844,42.742693,-71.165603
Market Basket,230 S Main St,Middleton,MA,1949,42.579509,-70.99721
Market Basket,25 Storey Ave # 3,Newburyport,MA,1950,42.821206,-70.902307
Market Basket,350 Winthrop Ave # 10,North Andover,MA,1845,42.68405,-71.138662
Market Basket,199 Boston Rd # 12,North Billerica,MA,1862,42.580561,-71.289218
Market Basket,1 Commerce Way # 1,Plymouth,MA,2360,41.947079,-70.715866
Market Basket,1 General Way,Reading,MA,1867,42.519348,-71.099876
Market Basket,275 Squire Rd,Revere,MA,2151,42.426613,-71.011047
Market Basket,231 Newburyport Tpke # 1,Rowley,MA,1969,42.7167,-70.8992
Market Basket,167 Broadway,Salem,MA,1970,42.5156,-70.9
Market Basket,227 Highland Ave,Salem,MA,1970,42.50369,-70.919964
Market Basket,400 Somerville Ave,Somerville,MA,2143,42.381,-71.101573
Market Basket,10 Main St # C,Tewksbury,MA,1876,42.628458,-71.273688
Market Basket,1900 Main St # 4,Tewksbury,MA,1876,42.590782,-71.202456
Market Basket,875 East St,Tewksbury,MA,1876,42.617411,-71.197046
Market Basket,110 Market Place Dr,Waltham,MA,2451,42.381065,-71.263214
Market Basket,120 Market Place Dr,Waltham,MA,2451,42.380915,-71.262376
Market Basket,352 W Center St,West Bridgewater,MA,2379,42.015149,-71.031868
Market Basket,6 Cornerstone Sq,Westford,MA,1886,42.565276,-71.426072
Market Basket,260 Main St,Wilmington,MA,1887,42.554531,-71.179878
Market Basket,310 Mishawum Rd,Woburn,MA,1801,42.505172,-71.133011
Muffin Town Aesops Bagels,130 Crescent Ave,Chelsea,MA,2150,42.39601,-71.025422
Pico,413 Centre St,Jamaica Plain,MA,2130,42.32136,-71.11089
Price Chopper,167 W Main St,Hopkinton,MA,1748,42.209348,-71.552228
Price Chopper,240 E Main St,Marlborough,MA,1752,42.352257,-71.536407
Price Rite,870 River St,Hyde Park,MA,2136,42.26191,-71.10771
Price Rite,395 Lynnway,Lynn,MA,1901,42.457075,-70.951964
Price Rite,255 Squire Rd,Revere,MA,2151,42.426189,-71.010966
Price Rite,666 Washington St,Stoughton,MA,2072,42.12806,-71.101758
Roche Bros,171 Broad St # 4,Bridgewater,MA,2324,41.993953,-70.974071
Roche Bros,233 Broad St # 17,Bridgewater,MA,2324,41.994114,-70.972847
Roche Bros,605 Plain St,Marshfield,MA,2050,42.104188,-70.740887
Roche Bros,6 Milliston Rd,Millis,MA,2054,42.16695,-71.354103
Roche Bros,150 W Central St,Natick,MA,1760,42.282271,-71.376543
Roche Bros,101 Falls Blvd # 3,Quincy,MA,2169,42.237694,-70.98422
Roche Bros,184 Linden St,Wellesley,MA,2482,42.301224,-71.29261
Roche Bros,1800 Centre St,West Roxbury,MA,2132,42.287283,-71.152775
Roche Bros,338 Washington St,Westwood,MA,2090,42.216975,-71.188174
Roche Bros Inc,377 Chestnut St,Needham,MA,2492,42.273696,-71.23798
Shaw's Supermarket,301 Pond St,Ashland,MA,1721,42.240303,-71.432987
Shaw's Supermarket,71 Dodge St,Beverly,MA,1915,42.577666,-70.889717
Shaw's Supermarket,105 Pearl St,Braintree,MA,2184,42.202291,-71.002309
Shaw's Supermarket,641 Belmont St,Brockton,MA,2301,42.071844,-71.045639
Shaw's Supermarket,715 Crescent St,Brockton,MA,2302,42.07957,-70.990615
Shaw's Supermarket,180a Cambridge St,Burlington,MA,1803,42.511118,-71.198404
Shaw's Supermarket,95 Washington St,Canton,MA,2021,42.139629,-71.146052
Shaw's Supermarket,100 N Main St,Carver,MA,2330,41.922252,-70.804843
Shaw's Supermarket,739 Chief Justice Cushing Hwy,Cohasset,MA,2025,42.222626,-70.803986
Shaw's Supermarket,246 Border St,East Boston,MA,2128,42.376065,-71.041885
Shaw's Supermarket,610 Middle St,East Weymouth,MA,2189,42.202869,-70.94313
Shaw's Supermarket,255 E Central St,Franklin,MA,2038,42.081446,-71.384696
Shaw's Supermarket,127 Eastern Ave,Gloucester,MA,1930,42.622645,-70.640401
Shaw's Supermarket,7 Railroad Ave,Gloucester,MA,1930,42.616371,-70.665541
Shaw's Supermarket,760a Boston Rd,Groton,MA,1450,42.579667,-71.521921
Shaw's Supermarket,35 Columbia Rd # 55,Hanover,MA,2339,42.11711,-70.823248
Shaw's Supermarket,430 Liberty St # 1,Hanson,MA,2341,42.067642,-70.872826
Shaw's Supermarket,201 Washington St,Hudson,MA,1749,42.380907,-71.568384
Shaw's Supermarket,1377 Hyde Park Ave,Hyde Park,MA,2136,42.252107,-71.126039
Shaw's Supermarket,146 High St,Ipswich,MA,1938,42.689737,-70.853639
Shaw's Supermarket,230 Main St,Medfield,MA,2052,42.194458,-71.288605
Shaw's Supermarket,65 Main St,Medway,MA,2053,42.149509,-71.402115
Shaw's Supermarket,34 Essex St,Melrose,MA,2176,42.456451,-71.065866
Shaw's Supermarket,45 Storey Ave,Newburyport,MA,1950,42.819912,-70.905056
Shaw's Supermarket,134 Nahatan St,Norwood,MA,2062,42.19154,-71.195724
Shaw's Supermarket,114-128 Essex Center Dr,Peabody,MA,1960,42.5331,-70.959
Shaw's Supermarket,2260 State Rd,Plymouth,MA,2360,41.820534,-70.550689
Shaw's Supermarket,121 Memorial Pkwy,Randolph,MA,2368,42.16308,-71.044986
Shaw's Supermarket,11 Traders Way,Salem,MA,1970,42.501888,-70.921367
Shaw's Supermarket,780 S Main St,Sharon,MA,2067,42.094444,-71.22176
Shaw's Supermarket,155 Great Rd,Stow,MA,1775,42.434744,-71.487112
Shaw's Supermarket,509 Boston Post Rd,Sudbury,MA,1776,42.358934,-71.42948
Shaw's Supermarket,130 River St,Waltham,MA,2453,42.369141,-71.22126
Shaw's Supermarket,127 Marion Rd,Wareham,MA,2571,41.7595,-70.728856
Shaw's Supermarkets Inc,750 W Center St,West Bridgewater,MA,2379,42.010473,-71.05326
Shaw's Supermarkets Perishable,100 Danton Dr,Methuen,MA,1844,42.719979,-71.211148
Star Market,2040 Commonwealth Ave,Auburndale,MA,2466,42.347055,-71.245376
Star Market,370 Western Ave # 1,Brighton,MA,2135,42.360975,-71.137832
Star Market,1717 Beacon St,Brookline,MA,2445,42.337509,-71.139182
Star Market,49 White St,Cambridge,MA,2140,42.389301,-71.117644
Star Market,699 Mount Auburn St,Cambridge,MA,2138,42.375286,-71.14901
Star Market,1 Boylston St,Chestnut Hill,MA,2467,42.323772,-71.166328
Star Market,795 Providence Hwy,Dedham,MA,2026,42.238148,-71.178346
Star Market,45 William T Morrissey Blv # 1,Dorchester,MA,2125,42.318521,-71.050772
Star Market,4 River St,Mattapan,MA,2126,42.271841,-71.069999
Star Market,33 Austin St,Newtonville,MA,2460,42.350681,-71.209145
Star Market,130 Granite St,Quincy,MA,2169,42.244873,-71.005268
Star Market,14 Mcgrath Hwy # 2,Somerville,MA,2143,42.374425,-71.085745
Star Market,1070 Lexington St,Waltham,MA,2452,42.412505,-71.234112
Stop & Shop Supermarket,37 Enon St,Beverly,MA,1915,42.586017,-70.884915
Stop & Shop Supermarket,316 Grove St,Braintree,MA,2184,42.192062,-70.986885
Stop & Shop Supermarket,155 Harvard St,Brookline,MA,2446,42.3381,-71.120422
Stop & Shop Supermarket,545 Freeport St,Dorchester,MA,2122,42.292713,-71.04901
Stop & Shop Supermarket,2991 Cranberry Hwy,East Wareham,MA,2538,41.759465,-70.664462
Stop & Shop Supermarket,301 Centre St,Jamaica Plain,MA,2130,42.323,-71.1032
Stop & Shop Supermarket,35 Washington St,Lynn,MA,1904,42.469736,-70.958894
Stop & Shop Supermarket,829 Worcester St,Natick,MA,1760,42.301178,-71.357712
Stop & Shop Supermarket,757 Turnpike St,North Andover,MA,1845,42.660354,-71.109805
Stop & Shop Supermarket,265 Main St,North Reading,MA,1864,42.59177,-71.116462
Stop & Shop Supermarket,125 Church St # C,Pembroke,MA,2359,42.107568,-70.771918
Stop & Shop Supermarket,65 Newport Ave # 1,Quincy,MA,2171,42.271484,-71.0271
Stop & Shop Supermarket,40 Furlong Dr,Revere,MA,2151,42.39949,-70.99929
Stop & Shop Supermarket,950 American Legion Hwy # 1,Roslindale,MA,2131,42.275514,-71.115185
Stop & Shop Supermarket,164 Main St,Saugus,MA,1906,42.464489,-71.027855
Stop & Shop Supermarket,565 Main St,Walpole,MA,2081,42.156963,-71.241844
Stop & Shop Supermarket Co LLC,1385 Hancock St,Quincy,MA,2169,42.249565,-71.003983
Sudbury Farms,1177 Highland Ave,Needham Heights,MA,2494,42.286735,-71.235683
Sudbury Farms,439 Boston Post Rd # 1,Sudbury,MA,1776,42.36066,-71.422046
Super Stop & Shop,375 Centre Ave,Abington,MA,2351,42.110207,-70.927643
Super Stop & Shop,60 Everett St # 2,Allston,MA,2134,42.356005,-71.138519
Super Stop & Shop,100 Macy St,Amesbury,MA,1913,42.847353,-70.91046
Super Stop & Shop,337 Great Rd,Bedford,MA,1730,42.484496,-71.263082
Super Stop & Shop,70 Pulaski Blvd,Bellingham,MA,2019,42.019031,-71.49754
Super Stop & Shop,224 Elliott St,Beverly,MA,1915,42.555265,-70.88684
Super Stop & Shop,683 Belmont St,Brockton,MA,2301,42.071071,-71.047089
Super Stop & Shop,932 N Montello St # 1,Brockton,MA,2301,42.109,-71.025719
Super Stop & Shop,1100 Massachusetts Ave,Dorchester,MA,2125,42.326174,-71.065133
Super Stop & Shop,1690 Revere Beach Pkwy,Everett,MA,2149,42.40109,-71.043092
Super Stop & Shop,141 Main St,Foxboro,MA,2035,42.075341,-71.260941
Super Stop & Shop,19 Temple St,Framingham,MA,1702,42.297466,-71.449019
Super Stop & Shop,235 Old Connecticut Path # PA,Framingham,MA,1701,42.306144,-71.401436
Super Stop & Shop,6 Thatcher Rd,Gloucester,MA,1930,42.61881,-70.641369
Super Stop & Shop,341 Plymouth St,Halifax,MA,2338,41.994922,-70.848518
Super Stop & Shop,400 Lincoln St,Hingham,MA,2043,42.247681,-70.923834
Super Stop & Shop,10 Technology Dr,Hudson,MA,1749,42.377682,-71.563376
Super Stop & Shop,160 Summer St # 1,Kingston,MA,2364,42.008438,-70.731506
Super Stop & Shop,760 Fellsway,Medford,MA,2155,42.408001,-71.084137
Super Stop & Shop,90 Pleasant Valley St,Methuen,MA,1844,42.743626,-71.158379
Super Stop & Shop,468 Washington St,Norwell,MA,2061,42.158031,-70.853828
Super Stop & Shop,1415 Boston Providence Tpke,Norwood,MA,2062,42.16392,-71.201187
Super Stop & Shop,109 Taunton St,Plainville,MA,2762,42.0325,-71.3124
Super Stop & Shop,127 Samoset St,Plymouth,MA,2360,41.955013,-70.686279
Super Stop & Shop,495 Southern Artery,Quincy,MA,2169,42.255203,-70.995999
Super Stop & Shop,25 Walkers Brook Dr,Reading,MA,1867,42.519108,-71.096008
Super Stop & Shop,540 Squire Rd,Revere,MA,2151,42.429617,-71.02069
Super Stop & Shop,779 Mcgrath Hwy,Somerville,MA,2145,42.391357,-71.085663
Super Stop & Shop,171 Watertown St,Watertown,MA,2472,42.363187,-71.193661
Super Stop & Shop,700 Pleasant St,Watertown,MA,2472,42.36682,-71.215056
Super Stop & Shop,475 Bedford St,Whitman,MA,2382,42.07412,-70.94622
Super Stop & Shop,695 Main St,Winchester,MA,1890,42.456185,-71.137628
Super Stop & Shop,2 Elm St,Woburn,MA,1801,42.500666,-71.159718
Target,385 Centre Ave # 1,Abington,MA,2351,42.11141,-70.929104
Target,250 Granite St # 121,Braintree,MA,2184,42.221992,-71.022346
Target,240 Independence Way,Danvers,MA,1923,42.552552,-70.937195
Target,7 Allstate Rd,Dorchester,MA,2125,42.328387,-71.063015
Target,1 Mystic View Rd,Everett,MA,2149,42.40231,-71.070017
Target,1167 Washington St,Hanover,MA,2339,42.13694,-70.838997
Target,35 Computer Dr,Haverhill,MA,1832,42.786618,-71.116889
Target,101 Kingston Collection Way #2,Kingston,MA,2364,41.970383,-70.716103
Target,181 Plain St,Lowell,MA,1852,42.624514,-71.317983
Target,423 Donald Lynch Blvd,Marlborough,MA,1752,42.360474,-71.60656
Target,605 Boston Post Rd E,Marlborough,MA,1752,42.348518,-71.505007
Target,67 Pleasant Valley St,Methuen,MA,1844,42.740734,-71.160788
Target,91 Taunton St,Plainville,MA,2762,42.030808,-71.311053
Target,227 Highland Ave # 1,Salem,MA,1970,42.50369,-70.919964
Target,180 Somerville Ave,Somerville,MA,2143,42.376427,-71.090446
Target,1 Hawes Way,Stoughton,MA,2072,42.152191,-71.072929
Target,550 Arsenal St # 1,Watertown,MA,2472,42.364128,-71.157556
Target,221 University Ave,Westwood,MA,2090,42.204929,-71.155281
Target,210 Ballardvale St,Wilmington,MA,1887,42.589462,-71.160595
Target,101 Commerce Way,Woburn,MA,1801,42.518337,-71.135321
Tedeschi Food Shops Inc,14 Howard St,Rockland,MA,2370,42.123568,-70.908558
Trader Joe's,1317 Beacon St,Brookline,MA,2446,42.341959,-71.120855
Trader Joe's,748 Memorial Dr,Cambridge,MA,2139,42.358204,-71.114235
Trader Joe's,145 Middlesex Ave,Somerville,MA,2145,42.394383,-71.083389
Trucchi's Supermarkets,438 W Grove St,Middleboro,MA,2346,41.896057,-70.951126
Trucchi's Supermarkets,53 E Center St,West Bridgewater,MA,2379,42.021,-71.003723
Vicentes Licuor & Trop Groc,689 Main St,Brockton,MA,2301,42.07143,-71.019211
Walmart,777 Brockton Ave,Abington,MA,2351,42.09588,-70.967837
Walmart,700 Oak St,Brockton,MA,2301,42.099358,-71.056426
Walmart,66 Parkhurst Rd,Chelmsford,MA,1824,42.623493,-71.361354
Walmart,55 Brooksby Village Way,Danvers,MA,1923,42.554237,-70.968903
Walmart,121 Worcester Rd,Framingham,MA,1701,42.300312,-71.399463
Walmart,780 Lynnway,Lynn,MA,1905,42.448776,-70.961255
Walmart,70 Pleasant Valley St # 2,Methuen,MA,1844,42.742693,-71.165603
Walmart,72 Main St,North Reading,MA,1864,42.570935,-71.112819
Walmart,301 Falls Blvd,Quincy,MA,2169,42.236674,-70.98667
Walmart,450 Highland Ave,Salem,MA,1970,42.49435,-70.935158
Walmart,15 Tobey Rd,Wareham,MA,2571,41.779047,-70.747308
Walmart,740 Middle St,Weymouth,MA,2188,42.199463,-70.944685
Walmart Supercenter,30 Memorial Dr,Avon,MA,2322,42.122091,-71.032972
Walmart Supercenter,295 Plymouth St,Halifax,MA,2338,41.996967,-70.846634
Walmart Supercenter,280 Washington St,Hudson,MA,1749,42.373208,-71.559908
Walmart Supercenter,300 Colony Place Rd,Plymouth,MA,2360,41.955112,-70.717842
Walmart Supercenter,770 Broadway,Saugus,MA,1906,42.472123,-71.02352
Walmart Supercenter,333 Main St,Tewksbury,MA,1876,42.622871,-71.269678
Walmart Supercenter,550 Providence Hwy,Walpole,MA,2081,42.141974,-71.214598
Wegmans,53 3rd Ave,Burlington,MA,1803,42.487538,-71.226235
Wegmans,200 Boylston St # 1,Chestnut Hill,MA,2467,42.318947,-71.175797
Wegmans,3850 Mystic Valley Pkwy # S101,Medford,MA,2155,42.407067,-71.092181
Wegmans,1245 Worcester St,Natick,MA,1760,42.300944,-71.383989
Wegmans,169 University Ave,Westwood,MA,2090,42.206684,-71.154579
Whole Foods Market,40 Railroad St,Andover,MA,1810,42.660969,-71.145048
Whole Foods Market,808 Massachusetts Ave,Arlington,MA,2476,42.416343,-71.159473
Whole Foods Market,170 Great Rd,Bedford,MA,1730,42.489939,-71.274276
Whole Foods Market,255 Hartford Ave,Bellingham,MA,2019,42.114704,-71.461319
Whole Foods Market,150 Brimbal Ave,Beverly,MA,1915,42.573456,-70.879555
Whole Foods Market,15 Westland Ave,Boston,MA,2115,42.34397,-71.087404
Whole Foods Market,181 Cambridge St,Boston,MA,2114,42.36133,-71.066182
Whole Foods Market,348 Harrison Ave,Boston,MA,2118,42.344904,-71.063648
Whole Foods Market,15 Washington St,Brighton,MA,2135,42.342798,-71.140387
Whole Foods Market,1028 Beacon St,Brookline,MA,2446,42.34618,-71.108276
Whole Foods Market,115 Prospect St,Cambridge,MA,2139,42.368182,-71.10185
Whole Foods Market,200 Alewife Brook Pkwy,Cambridge,MA,2138,42.389008,-71.141624
Whole Foods Market,340 River St,Cambridge,MA,2139,42.361687,-71.113945
Whole Foods Market,51 Austin St,Charlestown,MA,2129,42.374809,-71.067108
Whole Foods Market,575 Worcester Rd # 2,Framingham,MA,1701,42.298528,-71.421356
Whole Foods Market,94 Derby St # 200,Hingham,MA,2043,42.178909,-70.907776
Whole Foods Market,413 Centre St,Jamaica Plain,MA,2130,42.32136,-71.11089
Whole Foods Market,100 Market St,Lynnfield,MA,1940,42.514687,-71.034424
Whole Foods Market,2151 Mystic Valley Pkwy # 1,Medford,MA,2155,42.417305,-71.127204
Whole Foods Market,916 Walnut St,Newton,MA,2461,42.33003,-71.206341
Whole Foods Market,647 Washington St,Newtonville,MA,2458,42.353646,-71.200109
Whole Foods Market,45 Beacon St,Somerville,MA,2143,42.3824,-71.1009
Whole Foods Market,35 Pleasant St # 3122,South Weymouth,MA,2190,42.171377,-70.953358
Whole Foods Market,536 Boston Post Rd,Sudbury,MA,1776,42.361485,-71.431999
Whole Foods Market,331 Paradise Rd,Swampscott,MA,1907,42.479225,-70.904884
Whole Foods Market,442 Washington St,Wellesley,MA,2482,42.30245,-71.285713
Whole Foods Market,160 Littleton Rd # 16,Westford,MA,1886,42.568171,-71.420156
Whole Foods Market,400 Cambridge Rd,Woburn,MA,1801,42.460331,-71.165161
Wilson Farm,10 Pleasant St,Lexington,MA,2421,42.426453,-71.207379
